OBJECT_NAME,OBJECT_ID,EPOCH,MEAN_MOTION,ECCENTRICITY,INCLINATION,RA_OF_ASC_NODE,ARG_OF_PERICENTER,MEAN_ANOMALY,EPHEMERIS_TYPE,CLASSIFICATION_TYPE,NORAD_CAT_ID,ELEMENT_SET_NO,REV_AT_EPOCH,BSTAR,MEAN_MOTION_DOT,MEAN_MOTION_DDOT
GSAT-19,2017-031A,2026-03-01T10:57:29.630016,1.00272787,.0003569,0.0713,91.0800,289.2291,351.1701,0,U,42747,999,3206,0,.107E-5,0
ECHOSTAR 21,2017-032A,2026-03-01T08:50:38.692032,1.00270962,.0002837,1.7947,348.6317,331.9653,341.4582,0,U,42749,999,3201,0,.49E-6,0
BULGARIASAT-1,2017-038A,2026-03-01T07:19:05.570112,1.00272977,.0003054,0.0530,278.0095,68.5992,284.1542,0,U,42801,999,3175,0,-.7E-7,0
HELLAS-SAT 3,2017-040A,2026-03-01T05:46:59.401920,1.00273474,.0004919,0.0688,52.8669,304.3021,287.5941,0,U,42814,999,3172,0,.134E-5,0
GSAT-17,2017-040B,2026-03-01T12:17:28.090752,1.00270714,.0005311,0.0435,290.9974,354.8478,151.3324,0,U,42815,999,3170,0,-.276E-5,0
INTELSAT 35E (IS-35E),2017-041A,2026-03-01T10:38:38.573664,1.00270313,.000219,0.0143,213.7902,122.7820,307.8024,0,U,42818,999,3173,0,-.257E-5,0
COSMOS 2520,2017-046A,2026-03-01T05:48:36.746208,1.00270508,.0000967,0.0284,107.7488,357.1565,186.2629,0,U,42907,999,3131,0,.119E-5,0
TDRS 13,2017-047A,2026-03-01T08:57:56.093760,1.00271824,.0009906,3.4292,359.9846,100.1234,182.0633,0,U,42915,999,3126,0,-.12E-5,0
QZS-3 (MICHIBIKI-3),2017-048A,2026-03-01T11:12:38.741184,1.00266891,.0001538,0.0656,139.3123,199.1210,115.9626,0,U,42917,999,3117,0,-.367E-5,0
AMAZONAS 5,2017-053A,2026-03-01T10:26:25.109376,1.00272490,.0005542,0.0122,294.0891,33.5250,287.2082,0,U,42934,999,3096,0,-.301E-5,0
ASIASAT 9,2017-057A,2026-02-28T23:19:55.601184,1.00269946,.0002233,0.0137,130.9892,207.5455,292.3126,0,U,42942,999,3077,0,-.378E-5,0
INTELSAT 37E (IS-37E),2017-059A,2026-03-01T10:22:38.662752,1.00271463,.0002285,0.0147,121.3955,211.2444,324.2340,0,U,42950,999,3098,0,-.159E-5,0
BSAT-4A,2017-059B,2026-02-28T09:34:43.506624,1.00266961,.00051583,0.0171,345.7407,36.6103,29.3916,0,U,42951,999,3070,0,0,0
QZS-4 (MICHIBIKI-4),2017-062A,2026-02-21T13:46:20.256384,1.00283220,.0749564,40.1802,344.9639,269.6050,243.6917,0,U,42965,999,3064,0,-.296E-5,0
SES-11 (ECHOSTAR 105),2017-063A,2026-03-01T09:34:37.975296,1.00271842,.0002976,0.0290,67.8317,265.2954,224.7651,0,U,42967,999,3064,0,-.107E-5,0
KOREASAT 5A,2017-067A,2026-03-01T09:33:30.184128,1.00269847,.0001766,0.0182,145.8589,217.0042,52.8782,0,U,42984,999,3044,0,0,0
ALCOMSAT 1,2017-078A,2026-03-01T07:11:21.312672,1.00270366,.0002842,0.0290,164.8502,157.7667,279.5076,0,U,43039,999,3021,0,-.205E-5,0
SBIRS GEO-3 (USA 282),2018-009A,2026-03-01T09:58:27.789024,1.00271929,.0002387,2.1209,6.7539,328.5581,174.0956,0,U,43162,999,2976,0,.112E-5,0
AL YAH 3,2018-012A,2026-03-01T10:38:08.985120,1.00271868,.0004252,1.2734,84.4933,263.1331,311.0359,0,U,43174,999,2976,0,-.174E-5,0
SES-14,2018-012B,2026-03-01T10:30:17.237664,1.00268835,.0000971,0.0229,112.6453,230.9551,285.7293,0,U,43175,999,594,0,0,0
GOES 17,2018-022A,2026-03-01T10:23:17.765664,1.00270589,.0002408,0.6603,87.6177,216.9710,280.9615,0,U,43226,999,2934,0,-.2E-5,0
HISPASAT 30W-6,2018-023A,2026-03-01T10:35:16.759680,1.00271221,.0005294,0.0441,42.3688,313.8848,291.7750,0,U,43228,999,2932,0,-.235E-5,0
SUPERBIRD-B3,2018-033A,2026-03-01T09:03:20.308032,1.00270996,.0001393,0.0194,232.0360,107.7245,117.2157,0,U,43271,999,2897,0,-.111E-5,0
HYLAS 4,2018-033B,2026-03-01T07:08:59.040384,1.00269456,.0001185,0.0131,109.4475,242.8471,240.4993,0,U,43272,999,2898,0,-.252E-5,0
IRNSS-1I,2018-035A,2026-03-01T02:57:38.611584,1.00276166,.0019256,28.9216,75.8655,189.8352,352.6928,0,U,43286,999,2899,0,.76E-6,0
USA 283,2018-036A,2026-02-28T13:07:08.139936,1.00269721,.0000609,0.0092,146.1125,207.6918,135.4057,0,U,43339,999,2420,0,-.335E-5,0
COSMOS 2526,2018-037A,2026-03-01T11:20:27.428352,1.00273026,.0000577,0.0147,151.1615,307.3004,358.9681,0,U,43432,999,2887,0,-.363E-5,0
APSTAR-6C,2018-041A,2026-03-01T12:01:28.350048,1.00273607,.0003211,0.0373,334.0041,2.3939,137.2461,0,U,43450,999,2873,0,-.336E-5,0
BANGABANDHUSAT-1,2018-044A,2026-03-01T11:12:38.741184,1.00272127,.0002367,0.0251,111.5899,231.8390,103.0758,0,U,43463,999,2862,0,-.381E-5,0
SES-12,2018-049A,2026-03-01T12:17:28.070016,1.00269001,.0002303,0.0220,113.3741,187.0163,138.3006,0,U,43488,999,2833,0,0,0
FENGYUN 2H,2018-050A,2026-03-01T09:23:23.652672,1.00272561,.0002074,2.7521,80.3886,173.4178,125.2779,0,U,43491,999,2835,0,-.144E-5,0
BEIDOU-2 IGSO-7,2018-057A,2026-02-25T17:45:22.620960,1.00284731,.00999628,55.1859,164.0342,236.5988,133.5173,0,U,43539,999,2801,0,-.161E-5,0
